[{"OBJECT_NAME":"STARLINK-33990","OBJECT_ID":"2025-093E","EPOCH":"2026-03-09T01:00:41.148288","MEAN_MOTION":15.27598871,"ECCENTRICITY":0.00025072,"INCLINATION":43.0025,"RA_OF_ASC_NODE":81.503,"ARG_OF_PERICENTER":278.0352,"MEAN_ANOMALY":82.0216,"EPHEMERIS_TYPE":0,"CLASSIFICATION_TYPE":"U","NORAD_CAT_ID":63840,"ELEMENT_SET_NO":999,"REV_AT_EPOCH":4765,"BSTAR":0.0015919678,"MEAN_MOTION_DOT":0.00043833,"MEAN_MOTION_DDOT":0},{"OBJECT_NAME":"CZ-4C DEB","OBJECT_ID":"2015-069C","EPOCH":"2026-03-07T10:00:21.558816","MEAN_MOTION":15.31048021,"ECCENTRICITY":0.00583916,"INCLINATION":97.4862,"RA_OF_ASC_NODE":135.8649,"ARG_OF_PERICENTER":162.5456,"MEAN_ANOMALY":197.781,"EPHEMERIS_TYPE":0,"CLASSIFICATION_TYPE":"U","NORAD_CAT_ID":42670,"ELEMENT_SET_NO":999,"REV_AT_EPOCH":51749,"BSTAR":0.00045809658,"MEAN_MOTION_DOT":0.00014416,"MEAN_MOTION_DDOT":0}]
